[{"OBJECT_NAME":"IRIDIUM 170","OBJECT_ID":"2019-002J","EPOCH":"2026-03-09T22:22:31.188288","MEAN_MOTION":14.72262238,"ECCENTRICITY":0.00027319,"INCLINATION":86.6095,"RA_OF_ASC_NODE":35.0236,"ARG_OF_PERICENTER":88.7648,"MEAN_ANOMALY":271.3882,"EPHEMERIS_TYPE":0,"CLASSIFICATION_TYPE":"U","NORAD_CAT_ID":43930,"ELEMENT_SET_NO":999,"REV_AT_EPOCH":38465,"BSTAR":0.00020964732,"MEAN_MOTION_DOT":1.347e-5,"MEAN_MOTION_DDOT":0},{"OBJECT_NAME":"KINEIS-5D","OBJECT_ID":"2024-219B","EPOCH":"2026-03-09T22:30:16.875648","MEAN_MOTION":14.72345174,"ECCENTRICITY":0.00012375,"INCLINATION":97.9569,"RA_OF_ASC_NODE":230.365,"ARG_OF_PERICENTER":120.2964,"MEAN_ANOMALY":239.8366,"EPHEMERIS_TYPE":0,"CLASSIFICATION_TYPE":"U","NORAD_CAT_ID":62082,"ELEMENT_SET_NO":999,"REV_AT_EPOCH":6915,"BSTAR":0.0002571671,"MEAN_MOTION_DOT":1.578e-5,"MEAN_MOTION_DDOT":0}]
